#aV2022  7  9  0  0  0.00000000     288 DD+AD WGS84 FIT  NGA
## 2217 518400.00000000   300.00000000 59769 0.0000000000000
+   32     1  2  3  4  5  6  7  8  9 10 11 12 13 14 15 16 17
+         18 19 20 21 22 23 24 25 26 27 28 29 30 31 32  0  0
+          0  0  0  0  0  0  0  0  0  0  0  0  0  0  0  0  0
+          0  0  0  0  0  0  0  0  0  0  0  0  0  0  0  0  0
+          0  0  0  0  0  0  0  0  0  0  0  0  0  0  0  0  0
++         2  2  2  2  2  2  2  2  2  2  2  2  2  2  2  2  2
++         2  2  2  2  2  2  2  2  2  2  2  2  2  2  2  0  0
++         0  0  0  0  0  0  0  0  0  0  0  0  0  0  0  0  0
++         0  0  0  0  0  0  0  0  0  0  0  0  0  0  0  0  0
++         0  0  0  0  0  0  0  0  0  0  0  0  0  0  0  0  0
%c cc cc ccc ccc cccc cccc cccc cccc ccccc ccccc ccccc ccccc
%c cc cc ccc ccc cccc cccc cccc cccc ccccc ccccc ccccc ccccc
%f  0.0000000  0.000000000  0.00000000000  0.000000000000000
%f  0.0000000  0.000000000  0.00000000000  0.000000000000000
%i    0    0    0    0      0      0      0      0         0
%i    0    0    0    0      0      0      0      0         0
/*      NGA, ST. LOUIS,MO.                                  
/*   EPHEMERIS COMPUTED FROM 2 DAYS OF DATA                 
/*   EPOCHA v7 SMOOTHER                                     
/*   G2139 IERS2010 SATIGS SATAPC                           
*  2022  7  9 17 45  0.00000000
P  1  18734.303583  13804.181192 -13426.666057    324.731073                    
V  1 -16173.946855  -2767.956546 -25677.992213     -0.075210                    
P  2   3349.315561 -15063.854138  22274.485556   -651.684576                    
V  2  26398.571400   4069.816659  -1097.619954      0.005757                    
P  3  12568.147894  21838.726778   8461.773600   -302.627297                    
V  3   1090.429355  11012.497819 -29518.838299     -0.103806                    
P  4   8821.011455  12563.247561  21676.696306   -147.881580                    
V  4 -19737.286217  19166.306735  -3165.347616      0.044568                    
P  5  -5190.530632 -25458.249319   4960.894034    -88.521157                    
V  5   4851.624722   5237.706085  31029.309417     -0.013953                    
P  6  18295.733692  -7656.168543  17765.248107    377.889423                    
V  6  21461.827825   6328.108525 -19365.068840      0.161030                    
P  7  26176.695826   5794.150936   -670.724969    319.847177                    
V  7    656.069565   2971.662914  31185.372974     -0.012536                    
P  8   2057.186648  17914.681711 -19418.361433    -75.511147                    
V  8 -17555.097386  17409.639355  14573.440149     -0.015840                    
P  9  17209.140626   2141.487592  20059.837363   -320.706402                    
V  9 -16342.323483  19779.205274  11832.434358      0.037588                    
P 10 -13562.765135   6250.056127 -21800.926314   -485.745835                    
V 10  -8459.858342 -26707.943586  -2666.807611     -0.138925                    
P 11   5242.574726 -14250.824883  21785.142188    -11.145996                    
V 11  26517.640142   7897.218622  -1238.996980      0.010563                    
P 12  -9461.489071 -24151.635219   5706.788749   -243.817242                    
V 12    703.558137  -7909.072154 -30761.558848     -0.059021                    
P 13   8728.394211 -20224.407425 -14865.179190    345.181301                    
V 13  15730.675364 -10223.845799  23565.825755      0.072955                    
P 14  14707.239916  -4590.126957 -21629.940561   -111.957730                    
V 14   7071.775852  26580.646178   -930.708202      0.002271                    
P 15  -4615.042831 -18073.442879 -19216.863874    -46.763008                    
V 15  15309.975220 -18223.103480  14077.345905      0.030180                    
P 16  -1655.257707  24389.341827   9524.929395   -514.340113                    
V 16  -5215.532830 -11812.293051  28972.718625     -0.022752                    
P 17  21703.533125 -12227.362135  -8853.672968    634.888398                    
V 17  -7151.198622   9647.315113 -29371.078058      0.045211                    
P 18 -25982.743856  -5654.305623  -1409.851711    118.321327                    
V 18  -1126.843662  -2729.682044  31849.031888     -0.113375                    
P 19  20517.371641 -16644.545949  -1108.238094    181.502400                    
V 19    782.382082   2606.322915 -32227.546232      0.050249                    
P 20   2263.655610 -21407.519664  15707.849751    504.607197                    
V 20  10608.433396  16966.520401  21371.324597     -0.031520                    
P 21  10999.716962  14881.018263 -18679.854293    161.169885                    
V 21 -24718.293261  -2529.769074 -15354.783030     -0.001275                    
P 22 -18534.100541  18802.623309   2223.351299    289.516553                    
V 22  -3685.966992   -604.123357 -31720.963442      0.064480                    
P 23 -16411.038681  -5454.969049 -20201.611276    -32.150458                    
V 23  -7178.881160 -24556.750919  12360.000286     -0.017605                    
P 24 -15734.112678 -14548.385110 -16252.557411    201.234798                    
V 24  20080.062171    958.770784 -20272.342841     -0.096352                    
P 25 -16022.200336 -13875.914774  15883.651794    347.184001                    
V 25  -4255.223103 -20250.474988 -21328.635873      0.044850                    
P 26  -7214.777682  18201.999139  17720.222721    217.253798                    
V 26  -9886.618818 -20731.266596  17496.094580      0.021876                    
P 27 -10093.870895  21818.516224 -11059.063935    220.237950                    
V 27 -11190.857182   8480.412125  27860.311544      0.011544                    
P 28  10561.019189 -14434.428308 -19204.690279    332.692950                    
V 28   6205.688890  24650.910974 -14502.721230      0.043285                    
P 29 -16955.195583  -2842.992022  20215.430206   -531.977163                    
V 29  18389.726585 -17984.720171  12787.319572     -0.035870                    
P 30  24332.392328  -1989.099488 -10675.293167   -533.591740                    
V 30  12513.434529   6208.389457  26880.360908     -0.009010                    
P 31 -16670.976615   9241.981977  18551.271427   -185.083101                    
V 31 -22587.796596  -7256.739514 -16107.957259     -0.014977                    
P 32 -20619.409538  14887.472793  -7160.222410   -171.931805                    
V 32   4196.608602  -8841.320448 -30035.772584     -0.098781                    
EOF
